{"type": "FeatureCollection", "features": [ {"type": "Feature", "properties": {"norad_id": 66527, "name": "STARLINK-35935", "group": "last-30-days", "lat": 35.58629884925714, "lon": -117.24040868949524, "alt_km": 339.5970192684217, "timestamp": "2025-12-02T19:35:49.343616+00:00", "meta": {"OBJECT_NAME": "STARLINK-35935", "OBJECT_ID": "2025-265M", "EPOCH": "2025-12-02T12:00:05.998752", "MEAN_MOTION": 15.75036495, "ECCENTRICITY": 0.0001431, "INCLINATION": 42.999, "RA_OF_ASC_NODE": 114.8494, "ARG_OF_PERICENTER": 262.0243, "MEAN_ANOMALY": 222.6892, "EPHEMERIS_TYPE": 0, "CLASSIFICATION_TYPE": "U", "NORAD_CAT_ID": 66527, "ELEMENT_SET_NO": 999, "REV_AT_EPOCH": 334, "BSTAR": 3.1916e-05, "MEAN_MOTION_DOT": 4.427e-05, "MEAN_MOTION_DDOT": 0}, "tle": {"line1": "1 66527U 25265M   25336.50006943  .00004427  00000+0  31916-4 0  9992", "line2": "2 66527  42.9990 114.8494 0001431 262.0243 222.6892 15.75036495  3346"}}, "geometry": {"type": "Point", "coordinates": [-117.24040868949524, 35.58629884925714]}}, {"type": "Feature", "properties": {"norad_id": 66528, "name": "STARLINK-35928", "group": "last-30-days", "lat": 34.72787697823028, "lon": -115.13863083082275, "alt_km": 339.76391006466747, "timestamp": "2025-12-02T19:35:49.343626+00:00", "meta": {"OBJECT_NAME": "STARLINK-35928", "OBJECT_ID": "2025-265N", "EPOCH": "2025-12-02T12:00:05.998752", "MEAN_MOTION": 15.75041099, "ECCENTRICITY": 0.0001453, "INCLINATION": 42.9993, "RA_OF_ASC_NODE": 114.8446, "ARG_OF_PERICENTER": 265.6052, "MEAN_ANOMALY": 221.0274, "EPHEMERIS_TYPE": 0, "CLASSIFICATION_TYPE": "U", "NORAD_CAT_ID": 66528, "ELEMENT_SET_NO": 999, "REV_AT_EPOCH": 334, "BSTAR": -1.5521e-05, "MEAN_MOTION_DOT": -2.861e-05, "MEAN_MOTION_DDOT": 0}, "tle": {"line1": "1 66528U 25265N   25336.50006943 -.00002861  00000+0 -15521-4 0  9999", "line2": "2 66528  42.9993 114.8446 0001453 265.6052 221.0274 15.75041099  3341"}}, "geometry": {"type": "Point", "coordinates": [-115.13863083082275, 34.72787697823028]}}, {"type": "Feature", "properties": {"norad_id": 66529, "name": "STARLINK-35933", "group": "last-30-days", "lat": 33.818818374948606, "lon": -113.04828827469036, "alt_km": 339.8105804691804, "timestamp": "2025-12-02T19:35:49.343638+00:00", "meta": {"OBJECT_NAME": "STARLINK-35933", "OBJECT_ID": "2025-265P", "EPOCH": "2025-12-02T12:00:05.998752", "MEAN_MOTION": 15.75068193, "ECCENTRICITY": 0.0001646, "INCLINATION": 42.9994, "RA_OF_ASC_NODE": 114.8392, "ARG_OF_PERICENTER": 256.2001, "MEAN_ANOMALY": 232.3623, "EPHEMERIS_TYPE": 0, "CLASSIFICATION_TYPE": "U", "NORAD_CAT_ID": 66529, "ELEMENT_SET_NO": 999, "REV_AT_EPOCH": 334, "BSTAR": -7.1246e-05, "MEAN_MOTION_DOT": -0.00011421, "MEAN_MOTION_DDOT": 0}, "tle": {"line1": "1 66529U 25265P   25336.50006943 -.00011421  00000+0 -71246-4 0  9998", "line2": "2 66529  42.9994 114.8392 0001646 256.2001 232.3623 15.75068193  3344"}}, "geometry": {"type": "Point", "coordinates": [-113.04828827469036, 33.818818374948606]}}, {"type": "Feature", "properties": {"norad_id": 66530, "name": "STARLINK-35961", "group": "last-30-days", "lat": 32.90941147998767, "lon": -111.07465571591463, "alt_km": 340.0182212601967, "timestamp": "2025-12-02T19:35:49.343656+00:00", "meta": {"OBJECT_NAME": "STARLINK-35961", "OBJECT_ID": "2025-265Q", "EPOCH": "2025-12-02T12:00:05.998752", "MEAN_MOTION": 15.75074358, "ECCENTRICITY": 0.0001461, "INCLINATION": 42.9993, "RA_OF_ASC_NODE": 114.8349, "ARG_OF_PERICENTER": 261.5059, "MEAN_ANOMALY": 228.9542, "EPHEMERIS_TYPE": 0, "CLASSIFICATION_TYPE": "U", "NORAD_CAT_ID": 66530, "ELEMENT_SET_NO": 999, "REV_AT_EPOCH": 334, "BSTAR": -0.00049477, "MEAN_MOTION_DOT": -0.00075914, "MEAN_MOTION_DDOT": 0}, "tle": {"line1": "1 66530U 25265Q   25336.50006943 -.00075914  00000+0 -49477-3 0  9997", "line2": "2 66530  42.9993 114.8349 0001461 261.5059 228.9542 15.75074358  3345"}}, "geometry": {"type": "Point", "coordinates": [-111.07465571591463, 32.90941147998767]}}, {"type": "Feature", "properties": {"norad_id": 66531, "name": "STARLINK-35960", "group": "last-30-days", "lat": 31.950571462345373, "lon": -109.10455286367592, "alt_km": 340.17943549688334, "timestamp": "2025-12-02T19:35:49.343666+00:00", "meta": {"OBJECT_NAME": "STARLINK-35960", "OBJECT_ID": "2025-265R", "EPOCH": "2025-12-02T12:00:05.998752", "MEAN_MOTION": 15.75056512, "ECCENTRICITY": 0.0001462, "INCLINATION": 42.9993, "RA_OF_ASC_NODE": 114.8298, "ARG_OF_PERICENTER": 268.0005, "MEAN_ANOMALY": 224.3811, "EPHEMERIS_TYPE": 0, "CLASSIFICATION_TYPE": "U", "NORAD_CAT_ID": 66531, "ELEMENT_SET_NO": 999, "REV_AT_EPOCH": 334, "BSTAR": -0.00015736, "MEAN_MOTION_DOT": -0.00024598, "MEAN_MOTION_DDOT": 0}, "tle": {"line1": "1 66531U 25265R   25336.50006943 -.00024598  00000+0 -15736-3 0  9991", "line2": "2 66531  42.9993 114.8298 0001462 268.0005 224.3811 15.75056512  3344"}}, "geometry": {"type": "Point", "coordinates": [-109.10455286367592, 31.950571462345373]}}, {"type": "Feature", "properties": {"norad_id": 66532, "name": "STARLINK-35914", "group": "last-30-days", "lat": 30.967284970405533, "lon": -107.18635566025252, "alt_km": 340.3985865875602, "timestamp": "2025-12-02T19:35:49.343676+00:00", "meta": {"OBJECT_NAME": "STARLINK-35914", "OBJECT_ID": "2025-265S", "EPOCH": "2025-12-02T12:00:05.998752", "MEAN_MOTION": 15.75031856, "ECCENTRICITY": 0.0001636, "INCLINATION": 42.9991, "RA_OF_ASC_NODE": 114.825, "ARG_OF_PERICENTER": 266.2056, "MEAN_ANOMALY": 228.1059, "EPHEMERIS_TYPE": 0, "CLASSIFICATION_TYPE": "U", "NORAD_CAT_ID": 66532, "ELEMENT_SET_NO": 999, "REV_AT_EPOCH": 334, "BSTAR": 3.3551e-05, "MEAN_MOTION_DOT": 4.677e-05, "MEAN_MOTION_DDOT": 0}, "tle": {"line1": "1 66532U 25265S   25336.50006943  .00004677  00000+0  33551-4 0  9992", "line2": "2 66532  42.9991 114.8250 0001636 266.2056 228.1059 15.75031856  3340"}}, "geometry": {"type": "Point", "coordinates": [-107.18635566025252, 30.967284970405533]}}, {"type": "Feature", "properties": {"norad_id": 66533, "name": "STARLINK-35707", "group": "last-30-days", "lat": 29.951612986627815, "lon": -105.29914906393819, "alt_km": 340.20216952592, "timestamp": "2025-12-02T19:35:49.343688+00:00", "meta": {"OBJECT_NAME": "STARLINK-35707", "OBJECT_ID": "2025-265T", "EPOCH": "2025-12-02T12:00:05.998752", "MEAN_MOTION": 15.75023983, "ECCENTRICITY": 0.0001041, "INCLINATION": 42.9992, "RA_OF_ASC_NODE": 114.8203, "ARG_OF_PERICENTER": 258.9996, "MEAN_ANOMALY": 237.2351, "EPHEMERIS_TYPE": 0, "CLASSIFICATION_TYPE": "U", "NORAD_CAT_ID": 66533, "ELEMENT_SET_NO": 999, "REV_AT_EPOCH": 334, "BSTAR": 6.0436e-05, "MEAN_MOTION_DOT": 8.81e-05, "MEAN_MOTION_DDOT": 0}, "tle": {"line1": "1 66533U 25265T   25336.50006943  .00008810  00000+0  60436-4 0  9998", "line2": "2 66533  42.9992 114.8203 0001041 258.9996 237.2351 15.75023983  3349"}}, "geometry": {"type": "Point", "coordinates": [-105.29914906393819, 29.951612986627815]}}, {"type": "Feature", "properties": {"norad_id": 66534, "name": "STARLINK-35976", "group": "last-30-days", "lat": 28.914767747733556, "lon": -103.4588639018132, "alt_km": 340.48521229992457, "timestamp": "2025-12-02T19:35:49.343699+00:00", "meta": {"OBJECT_NAME": "STARLINK-35976", "OBJECT_ID": "2025-265U", "EPOCH": "2025-12-02T12:00:05.998752", "MEAN_MOTION": 15.75033306, "ECCENTRICITY": 0.0001552, "INCLINATION": 42.9995, "RA_OF_ASC_NODE": 114.8164, "ARG_OF_PERICENTER": 256.6946, "MEAN_ANOMALY": 241.4425, "EPHEMERIS_TYPE": 0, "CLASSIFICATION_TYPE": "U", "NORAD_CAT_ID": 66534, "ELEMENT_SET_NO": 999, "REV_AT_EPOCH": 334, "BSTAR": 9.5927e-05, "MEAN_MOTION_DOT": 0.00014279, "MEAN_MOTION_DDOT": 0}, "tle": {"line1": "1 66534U 25265U   25336.50006943  .00014279  00000+0  95927-4 0  9998", "line2": "2 66534  42.9995 114.8164 0001552 256.6946 241.4425 15.75033306  3345"}}, "geometry": {"type": "Point", "coordinates": [-103.4588639018132, 28.914767747733556]}}, {"type": "Feature", "properties": {"norad_id": 66535, "name": "STARLINK-35514", "group": "last-30-days", "lat": 27.848198955590956, "lon": -101.64880834130318, "alt_km": 340.8287300459815, "timestamp": "2025-12-02T19:35:49.343709+00:00", "meta": {"OBJECT_NAME": "STARLINK-35514", "OBJECT_ID": "2025-265V", "EPOCH": "2025-12-02T12:00:05.998752", "MEAN_MOTION": 15.75071571, "ECCENTRICITY": 0.000149, "INCLINATION": 42.9996, "RA_OF_ASC_NODE": 114.811, "ARG_OF_PERICENTER": 267.919, "MEAN_ANOMALY": 232.1247, "EPHEMERIS_TYPE": 0, "CLASSIFICATION_TYPE": "U", "NORAD_CAT_ID": 66535, "ELEMENT_SET_NO": 999, "REV_AT_EPOCH": 334, "BSTAR": -0.00051576, "MEAN_MOTION_DOT": -0.00079077, "MEAN_MOTION_DDOT": 0}, "tle": {"line1": "1 66535U 25265V   25336.50006943 -.00079077  00000+0 -51576-3 0  9999", "line2": "2 66535  42.9996 114.8110 0001490 267.9190 232.1247 15.75071571  3340"}}, "geometry": {"type": "Point", "coordinates": [-101.64880834130318, 27.848198955590956]}}, {"type": "Feature", "properties": {"norad_id": 66536, "name": "STARLINK-35640", "group": "last-30-days", "lat": 26.760014132211527, "lon": -99.87630131746214, "alt_km": 340.9630700874204, "timestamp": "2025-12-02T19:35:49.343719+00:00", "meta": {"OBJECT_NAME": "STARLINK-35640", "OBJECT_ID": "2025-265W", "EPOCH": "2025-12-02T12:00:05.998752", "MEAN_MOTION": 15.7504833, "ECCENTRICITY": 0.0001769, "INCLINATION": 42.9996, "RA_OF_ASC_NODE": 114.8066, "ARG_OF_PERICENTER": 264.0356, "MEAN_ANOMALY": 237.9256, "EPHEMERIS_TYPE": 0, "CLASSIFICATION_TYPE": "U", "NORAD_CAT_ID": 66536, "ELEMENT_SET_NO": 999, "REV_AT_EPOCH": 333, "BSTAR": -8.2906e-06, "MEAN_MOTION_DOT": -1.752e-05, "MEAN_MOTION_DDOT": 0}, "tle": {"line1": "1 66536U 25265W   25336.50006943 -.00001752  00000+0 -82906-5 0  9998", "line2": "2 66536  42.9996 114.8066 0001769 264.0356 237.9256 15.75048330  3331"}}, "geometry": {"type": "Point", "coordinates": [-99.87630131746214, 26.760014132211527]}}]}